STARLINK-4585           
1 53567U 22101AS  25245.23638898  .00000422  00000+0  44618-4 0  9991
2 53567  53.2175 180.2262 0001631  91.5944 268.5235 15.08851224167994
STARLINK-4583           
1 53568U 22101AT  25245.08181047  .00001344  00000+0  10253-3 0  9995
2 53568  53.2155 180.6844 0001333  85.2095 274.9049 15.08838873168663
STARLINK-4582           
1 53569U 22101AU  25245.09654507  .00000962  00000+0  78552-4 0  9995
2 53569  53.2176 180.7771 0001373  88.7500 271.3650 15.08839057168642
STARLINK-4550           
1 53570U 22101AV  25245.08549507 -.00000421  00000+0 -83703-5 0  9996
2 53570  53.2168 180.7049 0001310  89.5233 270.5909 15.08835542168661
STARLINK-4584           
1 53571U 22101AW  25245.22165062  .00001665  00000+0  12263-3 0  9993
2 53571  53.2174 180.1327 0001410  91.4237 268.6917 15.08851148168688
STARLINK-4555           
1 53572U 22101AX  25245.19586417 -.00000161  00000+0  80009-5 0  9997
2 53572  53.2166 179.9784 0001679  95.2898 264.8286 15.08846086167990
STARLINK-4547           
1 53573U 22101AY  25245.07812313  .00001401  00000+0  10606-3 0  9993
2 53573  53.2171 180.6616 0001298  89.4115 270.7026 15.08843781167979
STARLINK-4559           
1 53574U 22101AZ  25245.19955119  .00001228  00000+0  95235-4 0  9998
2 53574  53.2188 180.0016 0001659  94.8519 265.2662 15.08838743167994
STARLINK-4551           
1 53575U 22101BA  25245.20691917 -.00001527  00000+0 -77825-4 0  9993
2 53575  53.2176 180.0417 0002156  96.7282 263.3956 15.08844510168689
STARLINK-4581           
1 53576U 22101BB  25245.07540047  .00000740  00000+0  64601-4 0  9998
2 53576  53.2175 180.6433 0001410  88.6884 271.4270 15.08834174168799
STARLINK-4553           
1 53577U 22101BC  25245.20321157  .00002807  00000+0  19433-3 0  9991
2 53577  53.2156 180.0160 0002389 134.9377 225.1809 15.08854111168818
STARLINK-4556           
1 53578U 22101BD  25245.12594223  .00000483  00000+0  48445-4 0  9993
2 53578  53.2174 180.2520 0001793 100.1847 259.9347 15.08837053167981
STARLINK-4580           
1 53579U 22101BE  25245.12225415  .00000471  00000+0  47688-4 0  9993
2 53579  53.2172 180.2274 0001435  96.6562 263.4593 15.08840343167981
STARLINK-4691           
1 53588U 22104A   25245.05333126  .00000639  00000+0  58240-4 0  9999
2 53588  53.2199  11.1932 0001429  94.1728 265.9428 15.08843868167612
STARLINK-4673           
1 53589U 22104B   25244.63747275 -.00000321  00000+0 -20633-5 0  9993
2 53589  53.2200  12.8610 0001505  96.2508 263.8655 15.08835968167409
STARLINK-4689           
1 53590U 22104C   25245.04964400  .00002355  00000+0  16596-3 0  9990
2 53590  53.2200  11.1689 0001246  89.7325 270.3810 15.08847565167485
