[{"OBJECT_NAME":"STARLINK-4585","OBJECT_ID":"2022-101AS","EPOCH":"2025-09-02T05:40:24.007872","MEAN_MOTION":15.08851224,"ECCENTRICITY":0.00016316,"INCLINATION":53.2175,"RA_OF_ASC_NODE":180.2262,"ARG_OF_PERICENTER":91.5944,"MEAN_ANOMALY":268.5235,"EPHEMERIS_TYPE":0,"CLASSIFICATION_TYPE":"U","NORAD_CAT_ID":53567,"ELEMENT_SET_NO":999,"REV_AT_EPOCH":16799,"BSTAR":4.4618438e-5,"MEAN_MOTION_DOT":4.22e-6,"MEAN_MOTION_DDOT":0},{"OBJECT_NAME":"STARLINK-4583","OBJECT_ID":"2022-101AT","EPOCH":"2025-09-02T01:57:48.424608","MEAN_MOTION":15.08838873,"ECCENTRICITY":0.00013336,"INCLINATION":53.2155,"RA_OF_ASC_NODE":180.6844,"ARG_OF_PERICENTER":85.2095,"MEAN_ANOMALY":274.9049,"EPHEMERIS_TYPE":0,"CLASSIFICATION_TYPE":"U","NORAD_CAT_ID":53568,"ELEMENT_SET_NO":999,"REV_AT_EPOCH":16866,"BSTAR":0.00010252579,"MEAN_MOTION_DOT":1.344e-5,"MEAN_MOTION_DDOT":0},{"OBJECT_NAME":"STARLINK-4582","OBJECT_ID":"2022-101AU","EPOCH":"2025-09-02T02:19:01.494048","MEAN_MOTION":15.08839057,"ECCENTRICITY":0.00013736,"INCLINATION":53.2176,"RA_OF_ASC_NODE":180.7771,"ARG_OF_PERICENTER":88.75,"MEAN_ANOMALY":271.365,"EPHEMERIS_TYPE":0,"CLASSIFICATION_TYPE":"U","NORAD_CAT_ID":53569,"ELEMENT_SET_NO":999,"REV_AT_EPOCH":16864,"BSTAR":7.8551519e-5,"MEAN_MOTION_DOT":9.62e-6,"MEAN_MOTION_DDOT":0},{"OBJECT_NAME":"STARLINK-4550","OBJECT_ID":"2022-101AV","EPOCH":"2025-09-02T02:03:06.774048","MEAN_MOTION":15.08835542,"ECCENTRICITY":0.00013101,"INCLINATION":53.2168,"RA_OF_ASC_NODE":180.7049,"ARG_OF_PERICENTER":89.5233,"MEAN_ANOMALY":270.5909,"EPHEMERIS_TYPE":0,"CLASSIFICATION_TYPE":"U","NORAD_CAT_ID":53570,"ELEMENT_SET_NO":999,"REV_AT_EPOCH":16866,"BSTAR":-8.370324e-6,"MEAN_MOTION_DOT":-4.21e-6,"MEAN_MOTION_DDOT":0},{"OBJECT_NAME":"STARLINK-4584","OBJECT_ID":"2022-101AW","EPOCH":"2025-09-02T05:19:10.613568","MEAN_MOTION":15.08851148,"ECCENTRICITY":0.000141,"INCLINATION":53.2174,"RA_OF_ASC_NODE":180.1327,"ARG_OF_PERICENTER":91.4237,"MEAN_ANOMALY":268.6917,"EPHEMERIS_TYPE":0,"CLASSIFICATION_TYPE":"U","NORAD_CAT_ID":53571,"ELEMENT_SET_NO":999,"REV_AT_EPOCH":16868,"BSTAR":0.00012262604,"MEAN_MOTION_DOT":1.665e-5,"MEAN_MOTION_DDOT":0},{"OBJECT_NAME":"STARLINK-4555","OBJECT_ID":"2022-101AX","EPOCH":"2025-09-02T04:42:02.664288","MEAN_MOTION":15.08846086,"ECCENTRICITY":0.00016792,"INCLINATION":53.2166,"RA_OF_ASC_NODE":179.9784,"ARG_OF_PERICENTER":95.2898,"MEAN_ANOMALY":264.8286,"EPHEMERIS_TYPE":0,"CLASSIFICATION_TYPE":"U","NORAD_CAT_ID":53572,"ELEMENT_SET_NO":999,"REV_AT_EPOCH":16799,"BSTAR":8.000949e-6,"MEAN_MOTION_DOT":-1.61e-6,"MEAN_MOTION_DDOT":0},{"OBJECT_NAME":"STARLINK-4547","OBJECT_ID":"2022-101AY","EPOCH":"2025-09-02T01:52:29.838432","MEAN_MOTION":15.08843781,"ECCENTRICITY":0.00012985,"INCLINATION":53.2171,"RA_OF_ASC_NODE":180.6616,"ARG_OF_PERICENTER":89.4115,"MEAN_ANOMALY":270.7026,"EPHEMERIS_TYPE":0,"CLASSIFICATION_TYPE":"U","NORAD_CAT_ID":53573,"ELEMENT_SET_NO":999,"REV_AT_EPOCH":16797,"BSTAR":0.00010605953,"MEAN_MOTION_DOT":1.401e-5,"MEAN_MOTION_DDOT":0},{"OBJECT_NAME":"STARLINK-4559","OBJECT_ID":"2022-101AZ","EPOCH":"2025-09-02T04:47:21.222816","MEAN_MOTION":15.08838743,"ECCENTRICITY":0.00016592,"INCLINATION":53.2188,"RA_OF_ASC_NODE":180.0016,"ARG_OF_PERICENTER":94.8519,"MEAN_ANOMALY":265.2662,"EPHEMERIS_TYPE":0,"CLASSIFICATION_TYPE":"U","NORAD_CAT_ID":53574,"ELEMENT_SET_NO":999,"REV_AT_EPOCH":16799,"BSTAR":9.52351e-5,"MEAN_MOTION_DOT":1.228e-5,"MEAN_MOTION_DDOT":0},{"OBJECT_NAME":"STARLINK-4551","OBJECT_ID":"2022-101BA","EPOCH":"2025-09-02T04:57:57.816288","MEAN_MOTION":15.0884451,"ECCENTRICITY":0.00021566,"INCLINATION":53.2176,"RA_OF_ASC_NODE":180.0417,"ARG_OF_PERICENTER":96.7282,"MEAN_ANOMALY":263.3956,"EPHEMERIS_TYPE":0,"CLASSIFICATION_TYPE":"U","NORAD_CAT_ID":53575,"ELEMENT_SET_NO":999,"REV_AT_EPOCH":16868,"BSTAR":-7.7825463e-5,"MEAN_MOTION_DOT":-1.527e-5,"MEAN_MOTION_DDOT":0},{"OBJECT_NAME":"STARLINK-4581","OBJECT_ID":"2022-101BB","EPOCH":"2025-09-02T01:48:34.600608","MEAN_MOTION":15.08834174,"ECCENTRICITY":0.00014109,"INCLINATION":53.2175,"RA_OF_ASC_NODE":180.6433,"ARG_OF_PERICENTER":88.6884,"MEAN_ANOMALY":271.427,"EPHEMERIS_TYPE":0,"CLASSIFICATION_TYPE":"U","NORAD_CAT_ID":53576,"ELEMENT_SET_NO":999,"REV_AT_EPOCH":16879,"BSTAR":6.4601136e-5,"MEAN_MOTION_DOT":7.4e-6,"MEAN_MOTION_DDOT":0},{"OBJECT_NAME":"STARLINK-4553","OBJECT_ID":"2022-101BC","EPOCH":"2025-09-02T04:52:37.479648","MEAN_MOTION":15.08854111,"ECCENTRICITY":0.00023892,"INCLINATION":53.2156,"RA_OF_ASC_NODE":180.016,"ARG_OF_PERICENTER":134.9377,"MEAN_ANOMALY":225.1809,"EPHEMERIS_TYPE":0,"CLASSIFICATION_TYPE":"U","NORAD_CAT_ID":53577,"ELEMENT_SET_NO":999,"REV_AT_EPOCH":16881,"BSTAR":0.00019433432,"MEAN_MOTION_DOT":2.807e-5,"MEAN_MOTION_DDOT":0},{"OBJECT_NAME":"STARLINK-4556","OBJECT_ID":"2022-101BD","EPOCH":"2025-09-02T03:01:21.408672","MEAN_MOTION":15.08837053,"ECCENTRICITY":0.00017932,"INCLINATION":53.2174,"RA_OF_ASC_NODE":180.252,"ARG_OF_PERICENTER":100.1847,"MEAN_ANOMALY":259.9347,"EPHEMERIS_TYPE":0,"CLASSIFICATION_TYPE":"U","NORAD_CAT_ID":53578,"ELEMENT_SET_NO":999,"REV_AT_EPOCH":16798,"BSTAR":4.8444993e-5,"MEAN_MOTION_DOT":4.83e-6,"MEAN_MOTION_DDOT":0},{"OBJECT_NAME":"STARLINK-4580","OBJECT_ID":"2022-101BE","EPOCH":"2025-09-02T02:56:02.758560","MEAN_MOTION":15.08840343,"ECCENTRICITY":0.0001435,"INCLINATION":53.2172,"RA_OF_ASC_NODE":180.2274,"ARG_OF_PERICENTER":96.6562,"MEAN_ANOMALY":263.4593,"EPHEMERIS_TYPE":0,"CLASSIFICATION_TYPE":"U","NORAD_CAT_ID":53579,"ELEMENT_SET_NO":999,"REV_AT_EPOCH":16798,"BSTAR":4.7687522e-5,"MEAN_MOTION_DOT":4.71e-6,"MEAN_MOTION_DDOT":0},{"OBJECT_NAME":"STARLINK-4691","OBJECT_ID":"2022-104A","EPOCH":"2025-09-02T01:16:47.820864","MEAN_MOTION":15.08843868,"ECCENTRICITY":0.00014299,"INCLINATION":53.2199,"RA_OF_ASC_NODE":11.1932,"ARG_OF_PERICENTER":94.1728,"MEAN_ANOMALY":265.9428,"EPHEMERIS_TYPE":0,"CLASSIFICATION_TYPE":"U","NORAD_CAT_ID":53588,"ELEMENT_SET_NO":999,"REV_AT_EPOCH":16761,"BSTAR":5.823968e-5,"MEAN_MOTION_DOT":6.39e-6,"MEAN_MOTION_DDOT":0},{"OBJECT_NAME":"STARLINK-4673","OBJECT_ID":"2022-104B","EPOCH":"2025-09-01T15:17:57.645600","MEAN_MOTION":15.08835968,"ECCENTRICITY":0.00015058,"INCLINATION":53.22,"RA_OF_ASC_NODE":12.861,"ARG_OF_PERICENTER":96.2508,"MEAN_ANOMALY":263.8655,"EPHEMERIS_TYPE":0,"CLASSIFICATION_TYPE":"U","NORAD_CAT_ID":53589,"ELEMENT_SET_NO":999,"REV_AT_EPOCH":16740,"BSTAR":-2.063273e-6,"MEAN_MOTION_DOT":-3.21e-6,"MEAN_MOTION_DDOT":0},{"OBJECT_NAME":"STARLINK-4689","OBJECT_ID":"2022-104C","EPOCH":"2025-09-02T01:11:29.241600","MEAN_MOTION":15.08847565,"ECCENTRICITY":0.00012469,"INCLINATION":53.22,"RA_OF_ASC_NODE":11.1689,"ARG_OF_PERICENTER":89.7325,"MEAN_ANOMALY":270.381,"EPHEMERIS_TYPE":0,"CLASSIFICATION_TYPE":"U","NORAD_CAT_ID":53590,"ELEMENT_SET_NO":999,"REV_AT_EPOCH":16748,"BSTAR":0.00016596289,"MEAN_MOTION_DOT":2.355e-5,"MEAN_MOTION_DDOT":0}]
